GLOBALSTAR M001         
1 25162U 98008A   26025.97861681 -.00000090  00000+0  51647-4 0  9998
2 25162  52.0044  44.7619 0001337  18.0929 353.1611 12.38226172271315
GLOBALSTAR M004         
1 25163U 98008B   26026.49773748 -.00000072  00000+0  17539-3 0  9994
2 25163  52.0005  92.8764 0003556  75.1329  28.5969 12.63413664289917
GLOBALSTAR M002         
1 25164U 98008C   26026.31157086 -.00000070  00000+0  11786-3 0  9993
2 25164  52.0026  40.7534 0001565 186.0998 173.9803 11.61514720209994
GLOBALSTAR M003         
1 25165U 98008D   26025.60093376 -.00000203  00000+0 -12086-2 0  9998
2 25165  51.9883 272.4946 0008701  23.7385 340.5429 12.12032968260192
GLOBALSTAR M014         
1 25306U 98023A   26026.11933692 -.00000063  00000+0  27730-3 0  9999
2 25306  51.9865 319.7736 0001563  49.0816  52.9794 11.65483800217160
GLOBALSTAR M006         
1 25307U 98023B   26026.30272153 -.00000095  00000+0 -39812-3 0  9999
2 25307  51.9964  20.1204 0003086 151.2671 222.1848 11.58176531242689
GLOBALSTAR M015         
1 25308U 98023C   26026.48471085 -.00000102  00000+0 -63791-3 0  9996
2 25308  51.9818 128.3743 0013531 114.2304 328.6097 11.48862789219740
GLOBALSTAR M008         
1 25309U 98023D   26026.44048642 -.00000071  00000+0  19667-3 0  9999
2 25309  51.9966 270.7827 0002004 301.6924 228.7368 12.36079757265456
